NORAD_CAT_ID,OBJECT_NAME,OBJECT_TYPE,EPOCH,MEAN_MOTION,ECCENTRICITY,INCLINATION,RA_OF_ASC_NODE,ARG_OF_PERICENTER,MEAN_ANOMALY,BSTAR,MEAN_MOTION_DOT,MEAN_MOTION_DDOT,TLE_LINE0,TLE_LINE1,TLE_LINE2,SEMIMAJOR_AXIS,PERIOD,APOGEE,PERIGEE,DECAYED
50832.0,STARLINK-3328,PAYLOAD,2024-01-25 08:54:19,15.08830823,0.0002102,53.219,55.2243,114.9108,245.2102,0.00025032,3.697e-05,0.0,0 STARLINK-3328,1 50832U 22001AF  24025.37105543  .00003697  00000-0  25032-3 0  9994,2 50832  53.2190  55.2243 0002102 114.9108 245.2102 15.08830823113379,6917.908,95.438,541.228,538.319,0.0
50832.0,STARLINK-3328,PAYLOAD,2024-01-26 08:45:06,15.08836083,0.0001923,53.2192,50.7652,115.9178,244.2012,9.2612e-05,1.186e-05,0.0,0 STARLINK-3328,1 50832U 22001AF  24026.36465876  .00001186  00000-0  92612-4 0  9992,2 50832  53.2192  50.7652 0001923 115.9178 244.2012 15.08836083114771,6917.892,95.438,541.088,538.427,0.0
50832.0,STARLINK-3328,PAYLOAD,2024-01-27 11:46:39,15.08845155,0.0001634,53.2186,45.7024,92.9641,267.1538,5.6605e-05,6.13e-06,0.0,0 STARLINK-3328,1 50832U 22001AF  24027.49073699  .00000613  00000-0  56605-4 0  9991,2 50832  53.2186  45.7024 0001634  92.9641 267.1538 15.08845155114945,6917.865,95.437,540.86,538.599,0.0
50832.0,STARLINK-3328,PAYLOAD,2024-01-28 05:15:54,15.08838317,0.0001673,53.2195,42.4309,88.6236,271.4948,7.4592e-05,8.99e-06,0.0,0 STARLINK-3328,1 50832U 22001AF  24028.21938177  .00000899  00000-0  74592-4 0  9994,2 50832  53.2195  42.4309 0001673  88.6236 271.4948 15.08838317115058,6917.886,95.438,540.908,538.593,0.0
50832.0,STARLINK-3328,PAYLOAD,2024-01-28 10:02:04,15.08810369,0.0001965,53.22,41.5396,87.3536,272.7681,0.0005906,9.116e-05,0.0,0 STARLINK-3328,1 50832U 22001AF  24028.41810855  .00009116  00000-0  59060-3 0  9991,2 50832  53.2200  41.5396 0001965  87.3536 272.7681 15.08810369115082,6917.971,95.439,541.195,538.477,0.0
50832.0,STARLINK-3328,PAYLOAD,2024-01-29 00:20:32,15.08841839,0.0001731,53.2189,38.8644,90.7575,269.3615,4.4754e-05,4.24e-06,0.0,0 STARLINK-3328,1 50832U 22001AF  24029.01426209  .00000424  00000-0  44754-4 0  9992,2 50832  53.2189  38.8644 0001731  90.7575 269.3615 15.08841839115170,6917.875,95.437,540.937,538.542,0.0
50832.0,STARLINK-3328,PAYLOAD,2024-01-29 09:52:50,15.08845151,0.0001744,53.2191,37.0797,85.821,274.2981,7.3592e-05,8.83e-06,0.0,0 STARLINK-3328,1 50832U 22001AF  24029.41169909  .00000883  00000-0  73592-4 0  9998,2 50832  53.2191  37.0797 0001744  85.8210 274.2981 15.08845151113987,6917.865,95.437,540.936,538.523,0.0
50832.0,STARLINK-3328,PAYLOAD,2024-01-30 06:32:51,15.08834535,0.0001641,53.2189,33.2143,95.0084,265.1095,0.000222,3.246e-05,0.0,0 STARLINK-3328,1 50832U 22001AF  24030.27282001  .00003246  00000-0  22200-3 0  9998,2 50832  53.2189  33.2143 0001641  95.0084 265.1095 15.08834535115368,6917.897,95.438,540.897,538.627,0.0
50832.0,STARLINK-3328,PAYLOAD,2024-01-31 06:23:38,15.08843072,0.0001607,53.2178,28.7539,84.53,275.5876,6.3172e-05,7.18e-06,0.0,0 STARLINK-3328,1 50832U 22001AF  24031.26641854  .00000718  00000-0  63172-4 0  9998,2 50832  53.2178  28.7539 0001607  84.5300 275.5876 15.08843072114266,6917.871,95.437,540.848,538.624,0.0
50832.0,STARLINK-3328,PAYLOAD,2024-02-01 03:03:39,15.08836825,0.0001802,53.2192,24.8901,107.6434,252.4755,1.4715e-05,-5.4e-07,0.0,0 STARLINK-3328,1 50832U 22001AF  24032.12754323 -.00000054  00000-0  14715-4 0  9993,2 50832  53.2192  24.8901 0001802 107.6434 252.4755 15.08836825115645,6917.89,95.438,541.002,538.508,0.0
50832.0,STARLINK-3328,PAYLOAD,2024-02-01 04:39:02,15.08836372,0.0001891,53.2199,24.5928,114.2399,245.8791,6.7221e-06,-1.81e-06,0.0,0 STARLINK-3328,1 50832U 22001AF  24032.19378330 -.00000181  00000-0  67221-5 0  9992,2 50832  53.2199  24.5928 0001891 114.2399 245.8791 15.08836372114406,6917.891,95.438,541.065,538.448,0.0
50832.0,STARLINK-3328,PAYLOAD,2024-02-02 04:29:49,15.0883824,0.0001921,53.2202,20.1331,117.789,242.3297,4.5055e-05,4.29e-06,0.0,0 STARLINK-3328,1 50832U 22001AF  24033.18738252  .00000429  00000-0  45055-4 0  9999,2 50832  53.2202  20.1331 0001921 117.7890 242.3297 15.08838240115803,6917.886,95.438,541.08,538.422,0.0
50832.0,STARLINK-3328,PAYLOAD,2024-02-02 09:15:59,15.08840922,0.0001617,53.2191,19.2379,106.654,253.4629,4.5468e-05,4.36e-06,0.0,0 STARLINK-3328,1 50832U 22001AF  24033.38610123  .00000436  00000-0  45468-4 0  9993,2 50832  53.2191  19.2379 0001617 106.6540 253.4629 15.08840922114588,6917.878,95.437,540.861,538.624,0.0
50832.0,STARLINK-3328,PAYLOAD,2024-02-03 07:31:23,15.08841376,0.0001524,53.2195,15.0721,98.1881,261.9284,7.6875e-05,9.36e-06,0.0,0 STARLINK-3328,1 50832U 22001AF  24034.31346287  .00000936  00000-0  76875-4 0  9995,2 50832  53.2195  15.0721 0001524  98.1881 261.9284 15.08841376114728,6917.876,95.437,540.795,538.687,0.0
50832.0,STARLINK-3328,PAYLOAD,2024-02-04 07:22:10,15.08846699,0.0001575,53.2202,10.6113,92.8553,267.262,8.7975e-05,1.113e-05,0.0,0 STARLINK-3328,1 50832U 22001AF  24035.30706075  .00001113  00000-0  87975-4 0  9991,2 50832  53.2202  10.6113 0001575  92.8553 267.2620 15.08846699114878,6917.86,95.437,540.814,538.635,0.0
50832.0,STARLINK-3328,PAYLOAD,2024-02-05 04:02:11,15.08843067,0.0001674,53.2206,6.7451,96.9244,263.1939,2.5698e-05,1.21e-06,0.0,0 STARLINK-3328,1 50832U 22001AF  24036.16818443  .00000121  00000-0  25698-4 0  9991,2 50832  53.2206   6.7451 0001674  96.9244 263.1939 15.08843067116253,6917.871,95.437,540.894,538.578,0.0
50832.0,STARLINK-3328,PAYLOAD,2024-02-05 07:12:57,15.08847787,0.0001587,53.2202,6.148,90.2773,269.8401,5.9049e-05,6.52e-06,0.0,0 STARLINK-3328,1 50832U 22001AF  24036.30065999  .00000652  00000-0  59049-4 0  9993,2 50832  53.2202   6.1480 0001587  90.2773 269.8401 15.08847787115026,6917.857,95.437,540.819,538.624,0.0
50832.0,STARLINK-3328,PAYLOAD,2024-02-06 07:03:44,15.08848413,0.0001933,53.2217,1.6837,73.5391,286.5814,5.1225e-05,5.27e-06,0.0,0 STARLINK-3328,1 50832U 22001AF  24037.29425960  .00000527  00000-0  51225-4 0  9999,2 50832  53.2217   1.6837 0001933  73.5391 286.5814 15.08848413116429,6917.855,95.437,541.057,538.382,0.0
50832.0,STARLINK-3328,PAYLOAD,2024-02-07 03:43:44,15.08847192,0.0001735,53.2211,357.8221,87.1137,273.0053,4.1244e-05,3.68e-06,0.0,0 STARLINK-3328,1 50832U 22001AF  24038.15537834  .00000368  00000-0  41244-4 0  9992,2 50832  53.2211 357.8221 0001735  87.1137 273.0053 15.08847192115300,6917.858,95.437,540.924,538.523,0.0
50832.0,STARLINK-3328,PAYLOAD,2024-02-07 21:13:00,15.08834276,0.0001778,53.2202,354.553,111.851,248.2671,-4.2175e-05,-9.59e-06,0.0,0 STARLINK-3328,1 50832U 22001AF  24038.88402934 -.00000959  00000-0 -42175-4 0  9996,2 50832  53.2202 354.5530 0001778 111.8510 248.2671 15.08834276115415,6917.898,95.438,540.993,538.533,0.0
50832.0,STARLINK-3328,PAYLOAD,2024-02-08 01:59:09,15.08836152,0.0001814,53.2201,353.6631,111.04,249.0787,-2.5757e-05,-6.98e-06,0.0,0 STARLINK-3328,1 50832U 22001AF  24039.08274830 -.00000698  00000-0 -25757-4 0  9998,2 50832  53.2201 353.6631 0001814 111.0400 249.0787 15.08836152116690,6917.892,95.438,541.012,538.502,0.0
50832.0,STARLINK-3328,PAYLOAD,2024-02-08 06:45:18,15.08837375,0.0001764,53.2197,352.7709,108.2751,251.8434,-9.2621e-06,-4.35e-06,0.0,0 STARLINK-3328,1 50832U 22001AF  24039.28146808 -.00000435  00000-0 -92621-5 0  9997,2 50832  53.2197 352.7709 0001764 108.2751 251.8434 15.08837375115474,6917.888,95.438,540.974,538.533,0.0
50832.0,STARLINK-3328,PAYLOAD,2024-02-09 03:25:19,15.08841965,0.0001527,53.2194,348.9057,94.5216,265.5951,1.3182e-05,-7.8e-07,0.0,0 STARLINK-3328,1 50832U 22001AF  24040.14258809 -.00000078  00000-0  13182-4 0  9995,2 50832  53.2194 348.9057 0001527  94.5216 265.5951 15.08841965116853,6917.874,95.437,540.796,538.683,0.0
50832.0,STARLINK-3328,PAYLOAD,2024-02-10 03:16:07,15.08835149,0.0001396,53.2195,344.4453,96.1169,263.9983,8.6641e-05,1.091e-05,0.0,0 STARLINK-3328,1 50832U 22001AF  24041.13619521  .00001091  00000-0  86641-4 0  9992,2 50832  53.2195 344.4453 0001396  96.1169 263.9983 15.08835149117006,6917.895,95.438,540.726,538.794,0.0
50832.0,STARLINK-3328,PAYLOAD,2024-02-10 19:09:58,15.08836473,0.0001307,53.2197,341.4754,98.4896,261.6244,0.00011478,1.539e-05,0.0,0 STARLINK-3328,1 50832U 22001AF  24041.79859654  .00001539  00000-0  11478-3 0  9999,2 50832  53.2197 341.4754 0001307  98.4896 261.6244 15.08836473115850,6917.891,95.438,540.66,538.852,0.0
50832.0,STARLINK-3328,PAYLOAD,2024-02-11 04:42:17,15.08849832,0.0001441,53.2195,339.6897,104.8247,255.2905,6.1896e-05,6.98e-06,0.0,0 STARLINK-3328,1 50832U 22001AF  24042.19603046  .00000698  00000-0  61896-4 0  9991,2 50832  53.2195 339.6897 0001441 104.8247 255.2905 15.08849832117168,6917.85,95.437,540.712,538.718,0.0
50832.0,STARLINK-3328,PAYLOAD,2024-02-12 04:33:02,15.08864146,0.0001203,53.2194,335.2296,102.669,257.4437,0.0002789,4.156e-05,0.0,0 STARLINK-3328,1 50832U 22001AF  24043.18961557  .00004156  00000-0  27890-3 0  9993,2 50832  53.2194 335.2296 0001203 102.6690 257.4437 15.08864146117312,6917.807,95.436,540.504,538.839,0.0
50832.0,STARLINK-3328,PAYLOAD,2024-02-13 02:48:28,15.08839422,0.0001752,53.2194,331.0645,68.9419,291.1761,-1.5621e-05,-5.37e-06,0.0,0 STARLINK-3328,1 50832U 22001AF  24044.11700053 -.00000537  00000-0 -15621-4 0  9990,2 50832  53.2194 331.0645 0001752  68.9419 291.1761 15.08839422117455,6917.882,95.438,540.959,538.535,0.0
50832.0,STARLINK-3328,PAYLOAD,2024-02-13 12:20:47,15.08839134,0.0001375,53.2197,329.2792,85.2139,274.901,-5.2012e-05,-1.116e-05,0.0,0 STARLINK-3328,1 50832U 22001AF  24044.51444026 -.00001116  00000-0 -52012-4 0  9998,2 50832  53.2197 329.2792 0001375  85.2139 274.9010 15.08839134116266,6917.883,95.438,540.699,538.797,0.0
50832.0,STARLINK-3328,PAYLOAD,2024-02-14 04:14:37,15.08865449,0.0001413,53.2199,326.3075,92.9635,267.1519,5.5375e-05,5.94e-06,0.0,0 STARLINK-3328,1 50832U 22001AF  24045.17681904  .00000594  00000-0  55375-4 0  9991,2 50832  53.2199 326.3075 0001413  92.9635 267.1519 15.08865449117615,6917.803,95.436,540.645,538.69,0.0
